[{"OBJECT_ID":"2007-056B","OBJECT_NAME":"SKYNET 5B","NORAD_CAT_ID":"32294","OBJECT_TYPE":"PAYLOAD","PERIOD":"1436.039","INCLINATION":"0.0699","APOGEE":"35801.228","PERIGEE":"35769.723","ECCENTRICITY":"0.0003736","MEAN_MOTION":"1.00275784","TLE_LINE1":"1 32294U 07056B   16238.96463987 +.00000115 +00000-0 +00000-0 0  9997","TLE_LINE2":"2 32294 000.0699 357.2396 0003736 164.5998 185.2001 01.00275784032301","LAUNCH_DATE":"2007-11-14","LAUNCH_SITE":"FRENCH GUIANA","OWNER":"UNITED KINGDOM","ORBIT_TYPE":"Geosynchronous","OPERATIONAL_STATUS":"Operational","satInfo":{"lng":61.62106865936433,"lat":0.16648514714210966,"elevation":-8.414462886545587,"azimuth":253.37893134063566,"range":42606.83835689954,"height":35770.23466384094,"velocity":3.0749151637102363},"x":315,"y":-170,"dx":15,"dy":-27},{"OBJECT_ID":"2007-057A","OBJECT_NAME":"ASTRA 4A (SIRIUS 4)","NORAD_CAT_ID":"32299","OBJECT_TYPE":"PAYLOAD","PERIOD":"1436.104","INCLINATION":"0.0453","APOGEE":"35797.379","PERIGEE":"35776.120","ECCENTRICITY":"0.0002521","MEAN_MOTION":"1.00271239","TLE_LINE1":"1 32299U 07057A   16239.09413947  .00000004  00000-0  00000+0 0  9995","TLE_LINE2":"2 32299   0.0453 295.0313 0002521 220.8542 217.5776  1.00271239 32044","LAUNCH_DATE":"2007-11-17","LAUNCH_SITE":"TYURATAM MISSILE AND SPACE COMPLEX","OWNER":"SOCIÉTÉ EUROPÉENNE DES SATELLITES","ORBIT_TYPE":"Geosynchronous","OPERATIONAL_STATUS":"Operational","satInfo":{"lng":8.775925121491191,"lat":2.0837973782222385,"elevation":-6.529702996887304,"azimuth":306.22407487850876,"range":42428.66673879172,"height":35803.16210101135,"velocity":3.0737280833163956},"x":55,"y":-354,"dx":30,"dy":-5},{"OBJECT_ID":"2007-063B","OBJECT_NAME":"HORIZONS 2","NORAD_CAT_ID":"32388","OBJECT_TYPE":"PAYLOAD","PERIOD":"1436.143","INCLINATION":"0.0131","APOGEE":"35798.578","PERIGEE":"35776.433","ECCENTRICITY":"0.0002626","MEAN_MOTION":"1.00268542","TLE_LINE1":"1 32388U 07063B   16238.81068332 -.00000209  00000-0  00000+0 0  9992","TLE_LINE2":"2 32388   0.0131 111.5089 0002626  51.7254 187.9413  1.00268542 31955","LAUNCH_DATE":"2007-12-21","LAUNCH_SITE":"FRENCH GUIANA","OWNER":"INTERNATIONAL TELECOMMUNICATIONS SATELLITE ORGANIZATION (INTELSAT)","ORBIT_TYPE":"Geosynchronous","OPERATIONAL_STATUS":"Operational","satInfo":{"lng":66.00312866489757,"lat":-1.4225331266016343,"elevation":-9.959955926618154,"azimuth":248.99687133510244,"range":42801.44260919825,"height":35791.22301373377,"velocity":3.0742698725646407},"x":327,"y":-146,"dx":13,"dy":-28},{"OBJECT_ID":"2008-003A","OBJECT_NAME":"EXPRESS AM-33","NORAD_CAT_ID":"32478","OBJECT_TYPE":"PAYLOAD","PERIOD":"1436.127","INCLINATION":"0.0339","APOGEE":"35793.189","PERIGEE":"35781.188","ECCENTRICITY":"0.0001423","MEAN_MOTION":"1.00269673","TLE_LINE1":"1 32478U 08003A   16239.58005707 -.00000309  00000-0  00000+0 0  9990","TLE_LINE2":"2 32478   0.0339 273.2148 0001423 347.4361  19.8879  1.00269673 31703","LAUNCH_DATE":"2008-01-28","LAUNCH_SITE":"TYURATAM MISSILE AND SPACE COMPLEX","OWNER":"COMMONWEALTH OF INDEPENDENT STATES","ORBIT_TYPE":"Geosynchronous","OPERATIONAL_STATUS":"Operational","satInfo":{"lng":53.71396995286595,"lat":1.2697703000621463,"elevation":-7.330701190147444,"azimuth":261.28603004713403,"range":42506.080541067175,"height":35790.85247579822,"velocity":3.074421299599684},"x":289,"y":-212,"dx":18,"dy":-25},{"OBJECT_ID":"2008-006A","OBJECT_NAME":"THOR 5","NORAD_CAT_ID":"32487","OBJECT_TYPE":"PAYLOAD","PERIOD":"1436.031","INCLINATION":"0.0588","APOGEE":"35795.868","PERIGEE":"35774.752","ECCENTRICITY":"0.0002504","MEAN_MOTION":"1.00276374","TLE_LINE1":"1 32487U 08006A   16239.18851640 -.00000037  00000-0  00000+0 0  9992","TLE_LINE2":"2 32487   0.0588 266.9078 0002504 259.3781 235.6868  1.00276374 31261","LAUNCH_DATE":"2008-02-11","LAUNCH_SITE":"TYURATAM MISSILE AND SPACE COMPLEX","OWNER":"NORWAY","ORBIT_TYPE":"Geosynchronous","OPERATIONAL_STATUS":"Operational","satInfo":{"lng":14.226260263023272,"lat":2.070583920277678,"elevation":-6.541381799330247,"azimuth":300.7737397369767,"range":42436.459786785024,"height":35809.572009149175,"velocity":3.0734937313642834},"x":88,"y":-347,"dx":30,"dy":-8},{"OBJECT_ID":"2008-007A","OBJECT_NAME":"WINDS (KIZUNA)","NORAD_CAT_ID":"32500","OBJECT_TYPE":"PAYLOAD","PERIOD":"1436.102","INCLINATION":"0.211","APOGEE":"35796.752","PERIGEE":"35776.664","ECCENTRICITY":"0.0002382","MEAN_MOTION":"1.00271387","TLE_LINE1":"1 32500U 08007A   16238.92132579 -.00000286 +00000-0 +00000-0 0  9990","TLE_LINE2":"2 32500 000.2110 093.0578 0002382 032.5779 323.6414 01.00271387030977","LAUNCH_DATE":"2008-02-23","LAUNCH_SITE":"TANEGASHIMA SPACE CENTER","OWNER":"JAPAN","ORBIT_TYPE":"Geosynchronous","OPERATIONAL_STATUS":"Operational","satInfo":{"lng":41.75748170391816,"lat":-1.8070317890201326,"elevation":-10.339674433295313,"azimuth":273.2425182960818,"range":42815.21268432293,"height":35762.734568994885,"velocity":3.07541789157806},"x":238,"y":-267,"dx":23,"dy":-20},{"OBJECT_ID":"2008-013A","OBJECT_NAME":"DIRECTV 11","NORAD_CAT_ID":"32729","OBJECT_TYPE":"PAYLOAD","PERIOD":"1436.092","INCLINATION":"0.022","APOGEE":"35787.852","PERIGEE":"35785.179","ECCENTRICITY":"3.17e-05","MEAN_MOTION":"1.00272075","TLE_LINE1":"1 32729U 08013A   16239.11229942 -.00000154  00000-0  00000+0 0  9996","TLE_LINE2":"2 32729   0.0220 310.6394 0000317 275.0430  50.3310  1.00272075 31018","LAUNCH_DATE":"2008-03-19","LAUNCH_SITE":"SEA LAUNCH","OWNER":"UNITED STATES OF AMERICA","ORBIT_TYPE":"Geosynchronous","OPERATIONAL_STATUS":"Operational","satInfo":{"lng":-104.67285615830048,"lat":-1.3964238080800626,"elevation":-9.935222747979896,"azimuth":59.67285615830038,"range":42795.20651980586,"height":35787.798966644696,"velocity":3.0746974748333002},"x":-346,"y":91,"dx":-8,"dy":30},{"OBJECT_ID":"2008-013B","OBJECT_NAME":"BLOCK DM-SL R/B","NORAD_CAT_ID":"32730","OBJECT_TYPE":"ROCKET BODY","PERIOD":"499.781","INCLINATION":"0.1308","APOGEE":"28761.652","PERIGEE":"205.200","ECCENTRICITY":"0.6844275","MEAN_MOTION":"2.88126061","TLE_LINE1":"1 32730U 08013B   16238.96753097  .00012836  00000-0  86703-3 0  9990","TLE_LINE2":"2 32730   0.1308 148.9446 6844275  40.8384 142.7937  2.88126061 77302","LAUNCH_DATE":"2008-03-19","LAUNCH_SITE":"SEA LAUNCH","OWNER":"SEA LAUNCH DEMO","ORBIT_TYPE":"Highly Elliptical Orbit","OPERATIONAL_STATUS":"N/A, derelict rocket body","satInfo":{"lng":-64.52433156594593,"lat":0.23855968449139486,"elevation":-14.306017148522695,"azimuth":19.524331565945896,"range":25314.239696187196,"height":18151.314968481067,"velocity":3.4659683205384795},"x":-164,"y":-78,"dx":15,"dy":31},{"OBJECT_ID":"2008-018A","OBJECT_NAME":"VINASAT 1","NORAD_CAT_ID":"32767","OBJECT_TYPE":"PAYLOAD","PERIOD":"1436.122","INCLINATION":"0.0518","APOGEE":"35794.185","PERIGEE":"35780.000","ECCENTRICITY":"0.0001682","MEAN_MOTION":"1.00270016","TLE_LINE1":"1 32767U 08018A   16238.70467079 -.00000356 +00000-0 +00000-0 0  9997","TLE_LINE2":"2 32767 000.0518 291.5647 0001682 247.2479 181.1816 01.00270016030700","LAUNCH_DATE":"2008-04-18","LAUNCH_SITE":"FRENCH GUIANA","OWNER":"VIETNAM","ORBIT_TYPE":"Geosynchronous","OPERATIONAL_STATUS":"Operational","satInfo":{"lng":126.80663261814254,"lat":-0.7760222701104829,"elevation":-9.32927124166125,"azimuth":188.19336738185743,"range":42735.32396417821,"height":35795.79230972275,"velocity":3.074381940594959},"x":287,"y":214,"dx":-18,"dy":-25},{"OBJECT_ID":"2008-018B","OBJECT_NAME":"STAR ONE C2","NORAD_CAT_ID":"32768","OBJECT_TYPE":"PAYLOAD","PERIOD":"1436.123","INCLINATION":"0.0367","APOGEE":"35796.767","PERIGEE":"35777.463","ECCENTRICITY":"0.0002289","MEAN_MOTION":"1.00269935","TLE_LINE1":"1 32768U 08018B   16238.26683172 -.00000291  00000-0  00000+0 0  9990","TLE_LINE2":"2 32768   0.0367 212.6190 0002289  19.6975 127.6573  1.00269935 30620","LAUNCH_DATE":"2008-04-18","LAUNCH_SITE":"FRENCH GUIANA","OWNER":"BRAZIL","ORBIT_TYPE":"Geosynchronous","OPERATIONAL_STATUS":"Operational","satInfo":{"lng":-87.10775816433073,"lat":1.009577772113789,"elevation":-7.585620766405123,"azimuth":42.107758164330725,"range":42534.50657282092,"height":35790.67687829123,"velocity":3.074912485855173},"x":-357,"y":-18,"dx":2,"dy":31},{"OBJECT_ID":"2008-018C","OBJECT_NAME":"ARIANE 5 R/B","NORAD_CAT_ID":"32769","OBJECT_TYPE":"ROCKET BODY","PERIOD":"570.054","INCLINATION":"1.5653","APOGEE":"32533.685","PERIGEE":"257.876","ECCENTRICITY":"0.7086135","MEAN_MOTION":"2.52607471","TLE_LINE1":"1 32769U 08018C   16238.76622179 +.00000898 +00000-0 +28433-3 0  9992","TLE_LINE2":"2 32769 001.5653 096.4051 7086135 347.2024 001.6388 02.52607471072881","LAUNCH_DATE":"2008-04-18","LAUNCH_SITE":"FRENCH GUIANA","OWNER":"FRANCE","ORBIT_TYPE":"Highly Elliptical Orbit","OPERATIONAL_STATUS":"N/A, derelict rocket body","satInfo":{"lng":109.28833593670315,"lat":-0.4456890647388066,"elevation":-11.194142820895788,"azimuth":205.71166406329684,"range":34084.08743403495,"height":27058.511192207603,"velocity":2.496269945958641},"x":255,"y":89,"dx":-8,"dy":-24},{"OBJECT_ID":"2008-022A","OBJECT_NAME":"AMOS 3","NORAD_CAT_ID":"32794","OBJECT_TYPE":"PAYLOAD","PERIOD":"1436.077","INCLINATION":"0.0446","APOGEE":"35791.158","PERIGEE":"35781.292","ECCENTRICITY":"0.000117","MEAN_MOTION":"1.00273111","TLE_LINE1":"1 32794U 08022A   16239.13452203 -.00000062  00000-0  00000+0 0  9996","TLE_LINE2":"2 32794   0.0446 250.0947 0001170 275.1736 213.9734  1.00273111 30534","LAUNCH_DATE":"2008-04-28","LAUNCH_SITE":"TYURATAM MISSILE AND SPACE COMPLEX","OWNER":"ISRAEL","ORBIT_TYPE":"Geosynchronous","OPERATIONAL_STATUS":"Operational","satInfo":{"lng":31.715307578575878,"lat":1.1200154973485286,"elevation":-7.472804150440772,"azimuth":283.2846924214241,"range":42545.22007020322,"height":35813.78679306203,"velocity":3.073540522458521},"x":188,"y":-305,"dx":26,"dy":-16}]